{
    "links": {
        "self": "http://www.neowsapp.com/rest/v1/neo/54051141?api_key=iIulBulltgU6a56xZRHN4H3l9WmuAYTsLGpBGhQ2"
    },
    "id": "54051141",
    "neo_reference_id": "54051141",
    "name": "(2020 QP)",
    "designation": "2020 QP",
    "nasa_jpl_url": "http://ssd.jpl.nasa.gov/sbdb.cgi?sstr=54051141",
    "absolute_magnitude_h": 24.05,
    "estimated_diameter": {
        "kilometers": {
            "estimated_diameter_min": 0.0411675457,
            "estimated_diameter_max": 0.0920534307
        },
        "meters": {
            "estimated_diameter_min": 41.1675457307,
            "estimated_diameter_max": 92.0534307207
        },
        "miles": {
            "estimated_diameter_min": 0.0255803191,
            "estimated_diameter_max": 0.0571993323
        },
        "feet": {
            "estimated_diameter_min": 135.0641307351,
            "estimated_diameter_max": 302.0125776456
        }
    },
    "is_potentially_hazardous_asteroid": false,
    "close_approach_data": [
        {
            "close_approach_date": "2020-08-21",
            "close_approach_date_full": "2020-Aug-21 05:47",
            "epoch_date_close_approach": 1597988820000,
            "relative_velocity": {
                "kilometers_per_second": "24.7386047515",
                "kilometers_per_hour": "89058.9771052711",
                "miles_per_hour": "55337.7849685503"
            },
            "miss_distance": {
                "astronomical": "0.0412913861",
                "lunar": "16.0623491929",
                "kilometers": "6177103.409907607",
                "miles": "3838274.0757826966"
            },
            "orbiting_body": "Earth"
        },
        {
            "close_approach_date": "2020-11-18",
            "close_approach_date_full": "2020-Nov-18 03:42",
            "epoch_date_close_approach": 1605670920000,
            "relative_velocity": {
                "kilometers_per_second": "32.9272350629",
                "kilometers_per_hour": "118538.0462262737",
                "miles_per_hour": "73654.9321120977"
            },
            "miss_distance": {
                "astronomical": "0.1128571669",
                "lunar": "43.9014379241",
                "kilometers": "16883191.782474503",
                "miles": "10490728.9120660214"
            },
            "orbiting_body": "Venus"
        },
        {
            "close_approach_date": "2023-01-21",
            "close_approach_date_full": "2023-Jan-21 19:59",
            "epoch_date_close_approach": 1674331140000,
            "relative_velocity": {
                "kilometers_per_second": "28.468819034",
                "kilometers_per_hour": "102487.7485222895",
                "miles_per_hour": "63681.9012970859"
            },
            "miss_distance": {
                "astronomical": "0.486907567",
                "lunar": "189.407043563",
                "kilometers": "72840334.91008229",
                "miles": "45260885.337984002"
            },
            "orbiting_body": "Earth"
        },
        {
            "close_approach_date": "2024-03-08",
            "close_approach_date_full": "2024-Mar-08 16:55",
            "epoch_date_close_approach": 1709916900000,
            "relative_velocity": {
                "kilometers_per_second": "30.2029312636",
                "kilometers_per_hour": "108730.552548883",
                "miles_per_hour": "67560.936943499"
            },
            "miss_distance": {
                "astronomical": "0.3491805491",
                "lunar": "135.8312335999",
                "kilometers": "52236666.390790417",
                "miles": "32458359.3811130746"
            },
            "orbiting_body": "Earth"
        }
    ],
    "orbital_data": {
        "orbit_id": "3",
        "orbit_determination_date": "2020-08-31 09:30:13",
        "first_observation_date": "2020-08-10",
        "last_observation_date": "2020-08-19",
        "data_arc_in_days": 9,
        "observations_used": 20,
        "orbit_uncertainty": "8",
        "minimum_orbit_intersection": ".0387303",
        "jupiter_tisserand_invariant": "5.481",
        "epoch_osculation": "2459078.5",
        "eccentricity": ".5127354407483911",
        "semi_major_axis": "1.063106123090595",
        "inclination": "40.85977239548905",
        "ascending_node_longitude": "147.0977160062335",
        "orbital_period": "400.3716853249041",
        "perihelion_distance": ".5180139365054255",
        "perihelion_argument": "300.9808736395116",
        "aphelion_distance": "1.608198309675764",
        "perihelion_time": "2459147.002611566825",
        "mean_anomaly": "298.4048845910657",
        "mean_motion": ".899164484391192",
        "equinox": "J2000",
        "orbit_class": {
            "orbit_class_type": "APO",
            "orbit_class_description": "Near-Earth asteroid orbits which cross the Earth’s orbit similar to that of 1862 Apollo",
            "orbit_class_range": "a (semi-major axis) > 1.0 AU; q (perihelion) < 1.017 AU"
        }
    },
    "is_sentry_object": false
}